NORAD_CAT_ID,OBJECT_NAME,OBJECT_TYPE,EPOCH,MEAN_MOTION,ECCENTRICITY,INCLINATION,RA_OF_ASC_NODE,ARG_OF_PERICENTER,MEAN_ANOMALY,BSTAR,MEAN_MOTION_DOT,MEAN_MOTION_DDOT,TLE_LINE0,TLE_LINE1,TLE_LINE2,SEMIMAJOR_AXIS,PERIOD,APOGEE,PERIGEE,DECAYED
50190.0,STARLINK-3268,PAYLOAD,2023-06-04 19:13:36,15.08835835,0.0001137,53.2173,88.1944,103.3827,256.7292,7.7986e-05,9.53e-06,0.0,0 STARLINK-3268,1 50190U 21125AL  23155.80111930  .00000953  00000-0  77986-4 0  9993,2 50190  53.2173  88.1944 0001137 103.3827 256.7292 15.08835835 84425,6917.893,95.438,540.545,538.972,0.0
50190.0,STARLINK-3268,PAYLOAD,2023-06-05 03:10:31,15.08842164,0.0001161,53.2172,86.708,95.218,264.8944,0.00013137,1.804e-05,0.0,0 STARLINK-3268,1 50190U 21125AL  23156.13231467  .00001804  00000-0  13137-3 0  9991,2 50190  53.2172  86.7080 0001161  95.2180 264.8944 15.08842164 83995,6917.874,95.437,540.542,538.936,0.0
50190.0,STARLINK-3268,PAYLOAD,2023-06-05 12:42:51,15.08838466,0.000106,53.2169,84.9241,94.5065,265.6048,4.9939e-05,5.07e-06,0.0,0 STARLINK-3268,1 50190U 21125AL  23156.52975924  .00000507  00000-0  49939-4 0  9996,2 50190  53.2169  84.9241 0001060  94.5065 265.6048 15.08838466 84537,6917.885,95.438,540.483,539.017,0.0
50190.0,STARLINK-3268,PAYLOAD,2023-06-05 14:18:14,15.08838076,0.0001211,53.2169,84.6267,84.0917,276.0213,6.1628e-05,6.93e-06,0.0,0 STARLINK-3268,1 50190U 21125AL  23156.59600015  .00000693  00000-0  61628-4 0  9994,2 50190  53.2169  84.6267 0001211  84.0917 276.0213 15.08838076 84065,6917.886,95.438,540.589,538.914,0.0
50190.0,STARLINK-3268,PAYLOAD,2023-06-05 20:39:46,15.08837904,0.0001075,53.2171,83.4373,99.031,261.0804,3.7662e-05,3.12e-06,0.0,0 STARLINK-3268,1 50190U 21125AL  23156.86096058  .00000312  00000-0  37662-4 0  9999,2 50190  53.2171  83.4373 0001075  99.0310 261.0804 15.08837904 84580,6917.887,95.438,540.495,539.008,0.0
50190.0,STARLINK-3268,PAYLOAD,2023-06-06 01:25:56,15.08842783,0.0001101,53.2171,82.5451,95.6425,264.4692,4.8406e-05,4.83e-06,0.0,0 STARLINK-3268,1 50190U 21125AL  23157.05967756  .00000483  00000-0  48406-4 0  9990,2 50190  53.2171  82.5451 0001101  95.6425 264.4692 15.08842783 84613,6917.872,95.437,540.499,538.975,0.0
50190.0,STARLINK-3268,PAYLOAD,2023-06-06 18:55:09,15.08881484,8.44e-05,53.2173,79.2743,87.4333,272.6755,-0.0004832,-7.978e-05,0.0,0 STARLINK-3268,1 50190U 21125AL  23157.78830837 -.00007978  00000-0 -48320-3 0  9991,2 50190  53.2173  79.2743 0000844  87.4333 272.6755 15.08881484 84243,6917.754,95.435,540.202,539.035,0.0
50190.0,STARLINK-3268,PAYLOAD,2023-06-06 20:30:33,15.08838638,0.0001115,53.2174,78.9771,87.3212,272.7908,0.00011312,1.513e-05,0.0,0 STARLINK-3268,1 50190U 21125AL  23157.85455712  .00001513  00000-0  11312-3 0  9992,2 50190  53.2174  78.9771 0001115  87.3212 272.7908 15.08838638 84736,6917.885,95.438,540.521,538.978,0.0
50190.0,STARLINK-3268,PAYLOAD,2023-06-07 04:27:28,15.08851656,0.0001105,53.2174,77.4898,88.2612,271.8507,7.4434e-05,8.97e-06,0.0,0 STARLINK-3268,1 50190U 21125AL  23158.18574847  .00000897  00000-0  74434-4 0  9999,2 50190  53.2174  77.4898 0001105  88.2612 271.8507 15.08851656 84306,6917.845,95.437,540.474,538.945,0.0
50190.0,STARLINK-3268,PAYLOAD,2023-06-07 18:45:58,15.08832924,0.0001056,53.2179,74.8146,86.5815,273.5298,6.5847e-06,-1.83e-06,0.0,0 STARLINK-3268,1 50190U 21125AL  23158.78192317 -.00000183  00000-0  65847-5 0  9991,2 50190  53.2179  74.8146 0001056  86.5815 273.5298 15.08832924 84391,6917.902,95.438,540.498,539.036,0.0
50190.0,STARLINK-3268,PAYLOAD,2023-06-07 21:56:44,15.08833271,0.0001101,53.2174,74.2191,87.8682,272.2436,8.8742e-06,-1.47e-06,0.0,0 STARLINK-3268,1 50190U 21125AL  23158.91440327 -.00000147  00000-0  88742-5 0  9992,2 50190  53.2174  74.2191 0001101  87.8682 272.2436 15.08833271 84898,6917.901,95.438,540.528,539.004,0.0
50190.0,STARLINK-3268,PAYLOAD,2023-06-08 01:07:30,15.08834052,0.0001083,53.2177,73.625,81.4471,278.6644,1.711e-05,-1.5e-07,0.0,0 STARLINK-3268,1 50190U 21125AL  23159.04688320 -.00000015  00000-0  17110-4 0  9998,2 50190  53.2177  73.6250 0001083  81.4471 278.6644 15.08834052 84917,6917.899,95.438,540.513,539.014,0.0
50190.0,STARLINK-3268,PAYLOAD,2023-06-08 23:22:54,15.08843346,0.0001088,53.2176,69.4625,83.3844,276.7272,6.5829e-05,7.6e-06,0.0,0 STARLINK-3268,1 50190U 21125AL  23159.97423719  .00000760  00000-0  65829-4 0  9995,2 50190  53.2176  69.4625 0001088  83.3844 276.7272 15.08843346 84579,6917.87,95.437,540.488,538.982,0.0
50190.0,STARLINK-3268,PAYLOAD,2023-06-09 10:30:36,15.08844315,0.0001078,53.2175,67.3807,84.8606,275.2509,-1.3047e-05,-4.95e-06,0.0,0 STARLINK-3268,1 50190U 21125AL  23160.43791760 -.00000495  00000-0 -13047-4 0  9994,2 50190  53.2175  67.3807 0001078  84.8606 275.2509 15.08844315 85124,6917.867,95.437,540.478,538.986,0.0
50190.0,STARLINK-3268,PAYLOAD,2023-06-09 16:52:09,15.08830504,0.0001216,53.2175,66.1923,91.7041,268.4091,7.477e-05,9.02e-06,0.0,0 STARLINK-3268,1 50190U 21125AL  23160.70288637  .00000902  00000-0  74770-4 0  9999,2 50190  53.2175  66.1923 0001216  91.7041 268.4091 15.08830504 84689,6917.909,95.438,540.616,538.933,0.0
50190.0,STARLINK-3268,PAYLOAD,2023-06-10 10:21:23,15.08837182,0.0001248,53.2189,62.922,91.6791,268.4344,4.9109e-05,4.94e-06,0.0,0 STARLINK-3268,1 50190U 21125AL  23161.43152601  .00000494  00000-0  49109-4 0  9995,2 50190  53.2189  62.9220 0001248  91.6791 268.4344 15.08837182 85270,6917.889,95.438,540.617,538.891,0.0
50190.0,STARLINK-3268,PAYLOAD,2023-06-10 19:53:42,15.08849624,0.0001471,53.2184,61.1369,103.7198,256.3958,-0.00020799,-3.598e-05,0.0,0 STARLINK-3268,1 50190U 21125AL  23161.82896829 -.00003598  00000-0 -20799-3 0  9998,2 50190  53.2184  61.1369 0001471 103.7198 256.3958 15.08849624 85332,6917.851,95.437,540.734,538.698,0.0
50190.0,STARLINK-3268,PAYLOAD,2023-06-11 02:15:15,15.08839922,0.0001239,53.2183,59.9471,90.6184,269.495,2.0144e-06,-2.56e-06,0.0,0 STARLINK-3268,1 50190U 21125AL  23162.09392754 -.00000256  00000-0  20144-5 0  9999,2 50190  53.2183  59.9471 0001239  90.6184 269.4950 15.08839922 84898,6917.881,95.438,540.603,538.889,0.0
50190.0,STARLINK-3268,PAYLOAD,2023-06-11 10:12:10,15.08847419,0.0001217,53.2185,58.4604,97.3178,262.7953,-1.2754e-06,-3.08e-06,0.0,0 STARLINK-3268,1 50190U 21125AL  23162.42512188 -.00000308  00000-0 -12754-5 0  9998,2 50190  53.2185  58.4604 0001217  97.3178 262.7953 15.08847419 84940,6917.858,95.437,540.565,538.881,0.0
50190.0,STARLINK-3268,PAYLOAD,2023-06-11 19:44:29,15.0885903,0.0001585,53.2186,56.6756,80.0577,280.0594,-0.00021853,-3.766e-05,0.0,0 STARLINK-3268,1 50190U 21125AL  23162.82256171 -.00003766  00000-0 -21853-3 0  9998,2 50190  53.2186  56.6756 0001585  80.0577 280.0594 15.08859030 85485,6917.822,95.436,540.784,538.591,0.0
50190.0,STARLINK-3268,PAYLOAD,2023-06-12 10:02:57,15.08841851,0.0001148,53.2181,54.0008,89.2764,270.836,6.1495e-05,6.91e-06,0.0,0 STARLINK-3268,1 50190U 21125AL  23163.41872462  .00000691  00000-0  61495-4 0  9990,2 50190  53.2181  54.0008 0001148  89.2764 270.8360 15.08841851 85576,6917.875,95.437,540.534,538.946,0.0
50190.0,STARLINK-3268,PAYLOAD,2023-06-12 19:35:17,15.08832654,0.0001243,53.2183,52.2157,90.9115,269.202,3.5163e-05,2.72e-06,0.0,0 STARLINK-3268,1 50190U 21125AL  23163.81617241  .00000272  00000-0  35163-4 0  9994,2 50190  53.2183  52.2157 0001243  90.9115 269.2020 15.08832654 85158,6917.903,95.438,540.628,538.908,0.0
50190.0,STARLINK-3268,PAYLOAD,2023-06-12 22:46:03,15.08840454,0.0001383,53.219,51.619,90.559,269.5561,2.0326e-05,3.6e-07,0.0,0 STARLINK-3268,1 50190U 21125AL  23163.94864826  .00000036  00000-0  20326-4 0  9994,2 50190  53.2190  51.6190 0001383  90.5590 269.5561 15.08840454 85176,6917.879,95.438,540.701,538.787,0.0
50190.0,STARLINK-3268,PAYLOAD,2023-06-13 13:04:31,15.08840969,0.0001494,53.2182,48.9433,89.986,270.1303,2.8314e-05,1.63e-06,0.0,0 STARLINK-3268,1 50190U 21125AL  23164.54480764  .00000163  00000-0  28314-4 0  9992,2 50190  53.2182  48.9433 0001494  89.9860 270.1303 15.08840969 85747,6917.877,95.437,540.776,538.709,0.0
50190.0,STARLINK-3268,PAYLOAD,2023-06-14 01:47:36,15.08846781,0.0001357,53.2178,46.5646,99.0681,261.0465,2.8782e-05,1.7e-06,0.0,0 STARLINK-3268,1 50190U 21125AL  23165.07472257  .00000170  00000-0  28782-4 0  9996,2 50190  53.2178  46.5646 0001357  99.0681 261.0465 15.08846781 85345,6917.86,95.437,540.663,538.786,0.0
50190.0,STARLINK-3268,PAYLOAD,2023-06-14 16:06:04,15.08837483,0.0001423,53.2178,43.8887,92.7981,267.3174,6.9254e-05,8.14e-06,0.0,0 STARLINK-3268,1 50190U 21125AL  23165.67088758  .00000814  00000-0  69254-4 0  9995,2 50190  53.2178  43.8887 0001423  92.7981 267.3174 15.08837483 85434,6917.888,95.438,540.737,538.769,0.0
50190.0,STARLINK-3268,PAYLOAD,2023-06-15 01:38:23,15.08841866,0.0001423,53.2179,42.1058,90.6491,269.4664,5.3663e-05,5.66e-06,0.0,0 STARLINK-3268,1 50190U 21125AL  23166.06832543  .00000566  00000-0  53663-4 0  9999,2 50190  53.2179  42.1058 0001423  90.6491 269.4664 15.08841866 85976,6917.875,95.437,540.724,538.755,0.0
50190.0,STARLINK-3268,PAYLOAD,2023-06-15 15:56:51,15.08841179,0.0001455,53.2166,39.4279,92.0463,268.0696,-1.811e-05,-5.76e-06,0.0,0 STARLINK-3268,1 50190U 21125AL  23166.66448873 -.00000576  00000-0 -18110-4 0  9995,2 50190  53.2166  39.4279 0001455  92.0463 268.0696 15.08841179 86064,6917.877,95.437,540.748,538.735,0.0
50190.0,STARLINK-3268,PAYLOAD,2023-06-16 01:29:10,15.08847309,0.0001196,53.2185,37.6444,92.186,267.9269,3.6833e-05,2.99e-06,0.0,0 STARLINK-3268,1 50190U 21125AL  23167.06192277  .00000299  00000-0  36833-4 0  9996,2 50190  53.2185  37.6444 0001196  92.1860 267.9269 15.08847309 85641,6917.858,95.437,540.55,538.896,0.0
50190.0,STARLINK-3268,PAYLOAD,2023-06-16 07:50:42,15.08846109,0.0001194,53.2184,36.4549,90.9443,269.1686,2.2726e-05,7.4e-07,0.0,0 STARLINK-3268,1 50190U 21125AL  23167.32688275  .00000074  00000-0  22726-4 0  9990,2 50190  53.2184  36.4549 0001194  90.9443 269.1686 15.08846109 86166,6917.862,95.437,540.553,538.901,0.0
